{
    "links": {
        "self": "http://www.neowsapp.com/rest/v1/neo/3550077?api_key=iIulBulltgU6a56xZRHN4H3l9WmuAYTsLGpBGhQ2"
    },
    "id": "3550077",
    "neo_reference_id": "3550077",
    "name": "(2010 UP7)",
    "designation": "2010 UP7",
    "nasa_jpl_url": "http://ssd.jpl.nasa.gov/sbdb.cgi?sstr=3550077",
    "absolute_magnitude_h": 25.8,
    "estimated_diameter": {
        "kilometers": {
            "estimated_diameter_min": 0.0183888672,
            "estimated_diameter_max": 0.0411187571
        },
        "meters": {
            "estimated_diameter_min": 18.388867207,
            "estimated_diameter_max": 41.1187571041
        },
        "miles": {
            "estimated_diameter_min": 0.0114263088,
            "estimated_diameter_max": 0.0255500032
        },
        "feet": {
            "estimated_diameter_min": 60.3309310875,
            "estimated_diameter_max": 134.9040630575
        }
    },
    "is_potentially_hazardous_asteroid": false,
    "close_approach_data": [
        {
            "close_approach_date": "2010-11-13",
            "close_approach_date_full": "2010-Nov-13 16:53",
            "epoch_date_close_approach": 1289667180000,
            "relative_velocity": {
                "kilometers_per_second": "7.4288536985",
                "kilometers_per_hour": "26743.8733145356",
                "miles_per_hour": "16617.6028381346"
            },
            "miss_distance": {
                "astronomical": "0.0698012444",
                "lunar": "27.1526840716",
                "kilometers": "10442117.485589428",
                "miles": "6488430.9330049864"
            },
            "orbiting_body": "Earth"
        }
    ],
    "orbital_data": {
        "orbit_id": "7",
        "orbit_determination_date": "2017-04-06 08:56:07",
        "first_observation_date": "2010-10-29",
        "last_observation_date": "2010-10-31",
        "data_arc_in_days": 2,
        "observations_used": 36,
        "orbit_uncertainty": "8",
        "minimum_orbit_intersection": ".0696912",
        "jupiter_tisserand_invariant": "4.568",
        "epoch_osculation": "2455499.5",
        "eccentricity": ".3063767199631715",
        "semi_major_axis": "1.453314306480996",
        "inclination": "10.91494154639619",
        "ascending_node_longitude": "219.4301166463704",
        "orbital_period": "639.9377795311483",
        "perihelion_distance": "1.008052636185797",
        "perihelion_argument": "224.5698768761612",
        "aphelion_distance": "1.898575976776195",
        "perihelion_time": "2455544.493389586437",
        "mean_anomaly": "334.6887576117407",
        "mean_motion": ".5625546912760092",
        "equinox": "J2000",
        "orbit_class": {
            "orbit_class_type": "APO",
            "orbit_class_description": "Near-Earth asteroid orbits which cross the Earth’s orbit similar to that of 1862 Apollo",
            "orbit_class_range": "a (semi-major axis) > 1.0 AU; q (perihelion) < 1.017 AU"
        }
    },
    "is_sentry_object": false
}